{
  "type": "FeatureCollection",
  "features": [
    {
      "type": "Feature",
      "properties": {
        "norad_id": 66492,
        "name": "STARLINK-35673",
        "group": "last-30-days",
        "lat": -40.56045982417573,
        "lon": 25.462172063470057,
        "alt_km": 433.9441536557042,
        "timestamp": "2025-12-10T09:57:43.488544+00:00",
        "meta_object_name": "STARLINK-35673",
        "meta_object_id": "2025-263H",
        "meta_epoch": "2025-12-10T04:00:01.998720",
        "meta_mean_motion": 15.46041193,
        "meta_eccentricity": 0.0001512,
        "meta_inclination": 43.0012,
        "meta_ra_of_asc_node": 140.2018,
        "meta_arg_of_pericenter": 267.0292,
        "meta_mean_anomaly": 41.81,
        "meta_ephemeris_type": 0,
        "meta_classification_type": "U",
        "meta_norad_cat_id": 66492,
        "meta_element_set_no": 999,
        "meta_rev_at_epoch": 522,
        "meta_bstar": -0.046688,
        "meta_mean_motion_dot": -0.02074803,
        "meta_mean_motion_ddot": 0,
        "tle_line1": "1 66492U 25263H   25344.16668980 -.02074803  00000+0 -46688-1 0  9995",
        "tle_line2": "2 66492  43.0012 140.2018 0001512 267.0292  41.8100 15.46041193  5229"
      },
      "geometry": {
        "type": "Point",
        "coordinates": [
          25.462172063470057,
          -40.56045982417573
        ]
      }
    },
    {
      "type": "Feature",
      "properties": {
        "norad_id": 66493,
        "name": "STARLINK-35597",
        "group": "last-30-days",
        "lat": -42.920852049169426,
        "lon": 45.02596125299779,
        "alt_km": 417.3717964284424,
        "timestamp": "2025-12-10T09:57:43.488554+00:00",
        "meta_object_name": "STARLINK-35597",
        "meta_object_id": "2025-263J",
        "meta_epoch": "2025-12-10T04:00:01.998720",
        "meta_mean_motion": 15.50635854,
        "meta_eccentricity": 0.0001587,
        "meta_inclination": 43.0008,
        "meta_ra_of_asc_node": 140.1756,
        "meta_arg_of_pericenter": 261.5624,
        "meta_mean_anomaly": 57.4737,
        "meta_ephemeris_type": 0,
        "meta_classification_type": "U",
        "meta_norad_cat_id": 66493,
        "meta_element_set_no": 999,
        "meta_rev_at_epoch": 522,
        "meta_bstar": -0.0025105,
        "meta_mean_motion_dot": -0.00145217,
        "meta_mean_motion_ddot": 0,
        "tle_line1": "1 66493U 25263J   25344.16668980 -.00145217  00000+0 -25105-2 0  9994",
        "tle_line2": "2 66493  43.0008 140.1756 0001587 261.5624  57.4737 15.50635854  5220"
      },
      "geometry": {
        "type": "Point",
        "coordinates": [
          45.02596125299779,
          -42.920852049169426
        ]
      }
    },
    {
      "type": "Feature",
      "properties": {
        "norad_id": 66494,
        "name": "STARLINK-35689",
        "group": "last-30-days",
        "lat": -42.40399961909304,
        "lon": 37.26480360252259,
        "alt_km": 417.34341501357267,
        "timestamp": "2025-12-10T09:57:43.488567+00:00",
        "meta_object_name": "STARLINK-35689",
        "meta_object_id": "2025-263K",
        "meta_epoch": "2025-12-10T04:00:01.998720",
        "meta_mean_motion": 15.50640198,
        "meta_eccentricity": 0.0001601,
        "meta_inclination": 43.0008,
        "meta_ra_of_asc_node": 140.1913,
        "meta_arg_of_pericenter": 262.4987,
        "meta_mean_anomaly": 50.7889,
        "meta_ephemeris_type": 0,
        "meta_classification_type": "U",
        "meta_norad_cat_id": 66494,
        "meta_element_set_no": 999,
        "meta_rev_at_epoch": 522,
        "meta_bstar": -0.0026992,
        "meta_mean_motion_dot": -0.00155924,
        "meta_mean_motion_ddot": 0,
        "tle_line1": "1 66494U 25263K   25344.16668980 -.00155924  00000+0 -26992-2 0  9996",
        "tle_line2": "2 66494  43.0008 140.1913 0001601 262.4987  50.7889 15.50640198  5226"
      },
      "geometry": {
        "type": "Point",
        "coordinates": [
          37.26480360252259,
          -42.40399961909304
        ]
      }
    },
    {
      "type": "Feature",
      "properties": {
        "norad_id": 66495,
        "name": "STARLINK-35832",
        "group": "last-30-days",
        "lat": -42.975345466966985,
        "lon": 47.63439307247317,
        "alt_km": 417.3540671770015,
        "timestamp": "2025-12-10T09:57:43.488580+00:00",
        "meta_object_name": "STARLINK-35832",
        "meta_object_id": "2025-263L",
        "meta_epoch": "2025-12-10T04:00:01.998720",
        "meta_mean_motion": 15.50632648,
        "meta_eccentricity": 0.0001609,
        "meta_inclination": 43.0009,
        "meta_ra_of_asc_node": 140.1713,
        "meta_arg_of_pericenter": 264.2719,
        "meta_mean_anomaly": 56.6815,
        "meta_ephemeris_type": 0,
        "meta_classification_type": "U",
        "meta_norad_cat_id": 66495,
        "meta_element_set_no": 999,
        "meta_rev_at_epoch": 522,
        "meta_bstar": -0.0023535,
        "meta_mean_motion_dot": -0.00136295,
        "meta_mean_motion_ddot": 0,
        "tle_line1": "1 66495U 25263L   25344.16668980 -.00136295  00000+0 -23535-2 0  9997",
        "tle_line2": "2 66495  43.0009 140.1713 0001609 264.2719  56.6815 15.50632648  5222"
      },
      "geometry": {
        "type": "Point",
        "coordinates": [
          47.63439307247317,
          -42.975345466966985
        ]
      }
    },
    {
      "type": "Feature",
      "properties": {
        "norad_id": 66496,
        "name": "STARLINK-35909",
        "group": "last-30-days",
        "lat": -42.97007136394355,
        "lon": 50.24992156831494,
        "alt_km": 417.3204767503139,
        "timestamp": "2025-12-10T09:57:43.488590+00:00",
        "meta_object_name": "STARLINK-35909",
        "meta_object_id": "2025-263M",
        "meta_epoch": "2025-12-10T04:00:01.998720",
        "meta_mean_motion": 15.50644505,
        "meta_eccentricity": 0.0001661,
        "meta_inclination": 43.0008,
        "meta_ra_of_asc_node": 140.1661,
        "meta_arg_of_pericenter": 263.883,
        "meta_mean_anomaly": 58.9846,
        "meta_ephemeris_type": 0,
        "meta_classification_type": "U",
        "meta_norad_cat_id": 66496,
        "meta_element_set_no": 999,
        "meta_rev_at_epoch": 522,
        "meta_bstar": -0.0027422,
        "meta_mean_motion_dot": -0.00158374,
        "meta_mean_motion_ddot": 0,
        "tle_line1": "1 66496U 25263M   25344.16668980 -.00158374  00000+0 -27422-2 0  9999",
        "tle_line2": "2 66496  43.0008 140.1661 0001661 263.8830  58.9846 15.50644505  5225"
      },
      "geometry": {
        "type": "Point",
        "coordinates": [
          50.24992156831494,
          -42.97007136394355
        ]
      }
    },
    {
      "type": "Feature",
      "properties": {
        "norad_id": 66497,
        "name": "STARLINK-35899",
        "group": "last-30-days",
        "lat": -42.90545794781079,
        "lon": 52.857790511324495,
        "alt_km": 417.4341804628348,
        "timestamp": "2025-12-10T09:57:43.488600+00:00",
        "meta_object_name": "STARLINK-35899",
        "meta_object_id": "2025-263N",
        "meta_epoch": "2025-12-10T04:00:01.998720",
        "meta_mean_motion": 15.50600638,
        "meta_eccentricity": 0.0001575,
        "meta_inclination": 43.0009,
        "meta_ra_of_asc_node": 140.1616,
        "meta_arg_of_pericenter": 263.7887,
        "meta_mean_anomaly": 61.0228,
        "meta_ephemeris_type": 0,
        "meta_classification_type": "U",
        "meta_norad_cat_id": 66497,
        "meta_element_set_no": 999,
        "meta_rev_at_epoch": 522,
        "meta_bstar": -0.0018667,
        "meta_mean_motion_dot": -0.00108435,
        "meta_mean_motion_ddot": 0,
        "tle_line1": "1 66497U 25263N   25344.16668980 -.00108435  00000+0 -18667-2 0  9994",
        "tle_line2": "2 66497  43.0009 140.1616 0001575 263.7887  61.0228 15.50600638  5220"
      },
      "geometry": {
        "type": "Point",
        "coordinates": [
          52.857790511324495,
          -42.90545794781079
        ]
      }
    },
    {
      "type": "Feature",
      "properties": {
        "norad_id": 66498,
        "name": "STARLINK-35907",
        "group": "last-30-days",
        "lat": -42.65651344723822,
        "lon": 40.11443927492109,
        "alt_km": 433.0074821131111,
        "timestamp": "2025-12-10T09:57:43.488610+00:00",
        "meta_object_name": "STARLINK-35907",
        "meta_object_id": "2025-263P",
        "meta_epoch": "2025-12-10T04:00:01.998720",
        "meta_mean_motion": 15.46387168,
        "meta_eccentricity": 0.0001376,
        "meta_inclination": 43.0011,
        "meta_ra_of_asc_node": 140.1738,
        "meta_arg_of_pericenter": 257.5989,
        "meta_mean_anomaly": 62.0921,
        "meta_ephemeris_type": 0,
        "meta_classification_type": "U",
        "meta_norad_cat_id": 66498,
        "meta_element_set_no": 999,
        "meta_rev_at_epoch": 522,
        "meta_bstar": -0.045352,
        "meta_mean_motion_dot": -0.02043654,
        "meta_mean_motion_ddot": 0,
        "tle_line1": "1 66498U 25263P   25344.16668980 -.02043654  00000+0 -45352-1 0  9998",
        "tle_line2": "2 66498  43.0011 140.1738 0001376 257.5989  62.0921 15.46387168  5228"
      },
      "geometry": {
        "type": "Point",
        "coordinates": [
          40.11443927492109,
          -42.65651344723822
        ]
      }
    }
  ]
}